[{"OBJECT_NAME":"RAPTOR1","OBJECT_ID":"2024-028C","EPOCH":"2026-03-09T12:42:01.746432","MEAN_MOTION":13.70310646,"ECCENTRICITY":0.0011567,"INCLINATION":39.9898,"RA_OF_ASC_NODE":141.7891,"ARG_OF_PERICENTER":33.7881,"MEAN_ANOMALY":326.3601,"EPHEMERIS_TYPE":0,"CLASSIFICATION_TYPE":"U","NORAD_CAT_ID":58957,"ELEMENT_SET_NO":999,"REV_AT_EPOCH":10338,"BSTAR":4.5249e-5,"MEAN_MOTION_DOT":-3.8e-7,"MEAN_MOTION_DDOT":0},{"OBJECT_NAME":"CZ-4C DEB","OBJECT_ID":"2021-007D","EPOCH":"2026-03-09T23:36:52.107552","MEAN_MOTION":13.44240256,"ECCENTRICITY":0.01657124,"INCLINATION":63.4061,"RA_OF_ASC_NODE":48.7385,"ARG_OF_PERICENTER":1.0179,"MEAN_ANOMALY":359.1152,"EPHEMERIS_TYPE":0,"CLASSIFICATION_TYPE":"U","NORAD_CAT_ID":47535,"ELEMENT_SET_NO":999,"REV_AT_EPOCH":25075,"BSTAR":0.00024190617,"MEAN_MOTION_DOT":6.3e-7,"MEAN_MOTION_DDOT":0}]
